COMMENT,ORIGINATOR,NORAD_CAT_ID,OBJECT_NAME,OBJECT_TYPE,CLASSIFICATION_TYPE,INTLDES,EPOCH,EPOCH_MICROSECONDS,MEAN_MOTION,ECCENTRICITY,INCLINATION,RA_OF_ASC_NODE,ARG_OF_PERICENTER,MEAN_ANOMALY,EPHEMERIS_TYPE,ELEMENT_SET_NO,REV_AT_EPOCH,BSTAR,MEAN_MOTION_DOT,MEAN_MOTION_DDOT,FILE,TLE_LINE0,TLE_LINE1,TLE_LINE2,OBJECT_ID,OBJECT_NUMBER,SEMIMAJOR_AXIS,PERIOD,APOGEE,PERIGEE,DECAYED
"GENERATED VIA SPACETRACK.ORG API","18 SPCS","48897","SPACEBEE-109","PAYLOAD","U","21059U","2022-09-04 14:15:45","522432","15.1721704","0.0009074","97.5654","17.1027","183.5305","176.5866","0","999","6593","0.00059321","0.00011748","0","3558394","0 SPACEBEE-109","1 48897U 21059U   22247.59427688  .00011748  00000-0  59321-3 0  9993","2 48897  97.5654  17.1027 0009074 183.5305 176.5866 15.17217040 65937","2021-059U","48897","6892.393","94.911","520.512","508.004","0"
"GENERATED VIA SPACETRACK.ORG API","18 SPCS","48897","SPACEBEE-109","PAYLOAD","U","21059U","2022-09-04 22:10:36","707808","15.17226849","0.0009096","97.5654","17.4319","182.5912","177.5276","0","999","6598","0.00065072","0.00012899","0","3558547","0 SPACEBEE-109","1 48897U 21059U   22247.92403597  .00012899  00000-0  65072-3 0  9991","2 48897  97.5654  17.4319 0009096 182.5912 177.5276 15.17226849 65989","2021-059U","48897","6892.363","94.910","520.498","507.959","0"
"GENERATED VIA SPACETRACK.ORG API","18 SPCS","48897","SPACEBEE-109","PAYLOAD","U","21059U","2022-09-05 07:40:25","964544","15.17236485","0.0009106","97.5655","17.827","181.2471","178.8741","0","999","6604","0.00065053","0.00012899","0","3559490","0 SPACEBEE-109","1 48897U 21059U   22248.31974496  .00012899  00000-0  65053-3 0  9995","2 48897  97.5655  17.8270 0009106 181.2471 178.8741 15.17236485 66044","2021-059U","48897","6892.334","94.909","520.475","507.923","0"
"GENERATED VIA SPACETRACK.ORG API","18 SPCS","48897","SPACEBEE-109","PAYLOAD","U","21059U","2022-09-05 20:20:11","248224","15.17250447","0.0009143","97.5655","18.3536","179.5606","180.5637","0","999","6612","0.000634","0.00012574","0","3559723","0 SPACEBEE-109","1 48897U 21059U   22248.84735241  .00012574  00000-0  63400-3 0  9990","2 48897  97.5655  18.3536 0009143 179.5606 180.5637 15.17250447 66123","2021-059U","48897","6892.292","94.909","520.458","507.855","0"
"GENERATED VIA SPACETRACK.ORG API","18 SPCS","48897","SPACEBEE-109","PAYLOAD","U","21059U","2022-09-06 07:24:58","19040","15.17262467","0.000918","97.5657","18.8145","177.8655","182.2619","0","999","6619","0.00061466","0.00012192","0","3560347","0 SPACEBEE-109","1 48897U 21059U   22249.30900485  .00012192  00000-0  61466-3 0  9992","2 48897  97.5657  18.8145 0009180 177.8655 182.2619 15.17262467 66193","2021-059U","48897","6892.255","94.908","520.448","507.793","0"
"GENERATED VIA SPACETRACK.ORG API","18 SPCS","48897","SPACEBEE-109","PAYLOAD","U","21059U","2022-09-06 07:24:58","19040","15.17262467","0.000918","97.5657","18.8145","177.8655","182.2619","0","999","6619","0.00061466","0.00012192","0","3560801","0 SPACEBEE-109","1 48897U 21059U   22249.30900485  .00012192  00000-0  61466-3 0  9992","2 48897  97.5657  18.8145 0009180 177.8655 182.2619 15.17262467 66193","2021-059U","48897","6892.255","94.908","520.448","507.793","0"
"GENERATED VIA SPACETRACK.ORG API","18 SPCS","48897","SPACEBEE-109","PAYLOAD","U","21059U","2022-09-07 08:44:26","772000","15.17285264","0.0009234","97.5661","19.8679","173.8242","186.3107","0","999","6635","0.00050933","0.00010095","0","3561876","0 SPACEBEE-109","1 48897U 21059U   22250.36419875  .00010095  00000-0  50933-3 0  9995","2 48897  97.5661  19.8679 0009234 173.8242 186.3107 15.17285264 66354","2021-059U","48897","6892.186","94.906","520.416","507.687","0"
"GENERATED VIA SPACETRACK.ORG API","18 SPCS","48897","SPACEBEE-109","PAYLOAD","U","21059U","2022-09-07 08:44:26","772000","15.17285264","0.0009234","97.5661","19.8679","173.8242","186.3107","0","999","6635","0.00050933","0.00010095","0","3562217","0 SPACEBEE-109","1 48897U 21059U   22250.36419875  .00010095  00000-0  50933-3 0  9995","2 48897  97.5661  19.8679 0009234 173.8242 186.3107 15.17285264 66354","2021-059U","48897","6892.186","94.906","520.416","507.687","0"
"GENERATED VIA SPACETRACK.ORG API","18 SPCS","48897","SPACEBEE-109","PAYLOAD","U","21059U","2022-09-08 08:28:56","260416","15.17306464","0.0009316","97.5667","20.8555","170.6282","189.5126","0","999","6650","0.00052819","0.00010478","0","3563723","0 SPACEBEE-109","1 48897U 21059U   22251.35342894  .00010478  00000-0  52819-3 0  9991","2 48897  97.5667  20.8555 0009316 170.6282 189.5126 15.17306464 66504","2021-059U","48897","6892.122","94.905","520.408","507.567","0"
"GENERATED VIA SPACETRACK.ORG API","18 SPCS","48897","SPACEBEE-109","PAYLOAD","U","21059U","2022-09-08 14:48:47","923776","15.17311497","0.0009336","97.5667","21.1189","169.7899","190.3525","0","999","6654","0.00053187","0.00010553","0","3563973","0 SPACEBEE-109","1 48897U 21059U   22251.61722134  .00010553  00000-0  53187-3 0  9992","2 48897  97.5667  21.1189 0009336 169.7899 190.3525 15.17311497 66545","2021-059U","48897","6892.107","94.905","520.406","507.537","0"
"GENERATED VIA SPACETRACK.ORG API","18 SPCS","48897","SPACEBEE-109","PAYLOAD","U","21059U","2022-09-08 14:48:47","923776","15.17311497","0.0009336","97.5667","21.1189","169.7899","190.3525","0","999","6654","0.00053187","0.00010553","0","3564431","0 SPACEBEE-109","1 48897U 21059U   22251.61722134  .00010553  00000-0  53187-3 0  9992","2 48897  97.5667  21.1189 0009336 169.7899 190.3525 15.17311497 66545","2021-059U","48897","6892.107","94.905","520.406","507.537","0"
"GENERATED VIA SPACETRACK.ORG API","18 SPCS","48897","SPACEBEE-109","PAYLOAD","U","21059U","2022-09-09 08:13:24","511584","15.1732891","0.0009395","97.5669","21.8434","167.4074","192.7395","0","999","6665","0.00055448","0.00011011","0","3564914","0 SPACEBEE-109","1 48897U 21059U   22252.34264481  .00011011  00000-0  55448-3 0  9991","2 48897  97.5669  21.8434 0009395 167.4074 192.7395 15.17328910 66653","2021-059U","48897","6892.054","94.904","520.394","507.444","0"
"GENERATED VIA SPACETRACK.ORG API","18 SPCS","48897","SPACEBEE-109","PAYLOAD","U","21059U","2022-09-09 14:33:15","853536","15.1733286","0.0009346","97.5669","22.1069","166.7059","193.4422","0","999","6669","0.00050731","0.00010068","0","3565505","0 SPACEBEE-109","1 48897U 21059U   22252.60643349  .00010068  00000-0  50731-3 0  9995","2 48897  97.5669  22.1069 0009346 166.7059 193.4422 15.17332860 66694","2021-059U","48897","6892.042","94.903","520.349","507.466","0"
"GENERATED VIA SPACETRACK.ORG API","18 SPCS","48897","SPACEBEE-109","PAYLOAD","U","21059U","2022-09-09 20:53:07","84032","15.17339459","0.0009346","97.567","22.3703","165.8277","194.322","0","999","6673","0.0005158","0.0001024","0","3565777","0 SPACEBEE-109","1 48897U 21059U   22252.87022088  .00010240  00000-0  51580-3 0  9990","2 48897  97.5670  22.3703 0009346 165.8277 194.3220 15.17339459 66737","2021-059U","48897","6892.022","94.903","520.329","507.446","0"
"GENERATED VIA SPACETRACK.ORG API","18 SPCS","48897","SPACEBEE-109","PAYLOAD","U","21059U","2022-09-10 07:57:51","559200","15.17348579","0.0009343","97.5671","22.8313","164.4589","195.6933","0","999","6680","0.00047821","0.0000949","0","3567066","0 SPACEBEE-109","1 48897U 21059U   22253.33184675  .00009490  00000-0  47821-3 0  9991","2 48897  97.5671  22.8313 0009343 164.4589 195.6933 15.17348579 66804","2021-059U","48897","6891.995","94.902","520.299","507.420","0"
"GENERATED VIA SPACETRACK.ORG API","18 SPCS","48897","SPACEBEE-109","PAYLOAD","U","21059U","2022-09-10 20:37:33","456864","15.17361955","0.0009349","97.5674","23.3582","163.0449","197.1098","0","999","6688","0.00055786","0.00011089","0","3567798","0 SPACEBEE-109","1 48897U 21059U   22253.85941501  .00011089  00000-0  55786-3 0  9993","2 48897  97.5674  23.3582 0009349 163.0449 197.1098 15.17361955 66887","2021-059U","48897","6891.954","94.902","520.262","507.376","0"
"GENERATED VIA SPACETRACK.ORG API","18 SPCS","48897","SPACEBEE-109","PAYLOAD","U","21059U","2022-09-10 22:12:31","164480","15.1736334","0.0009376","97.5672","23.4241","162.9536","197.2014","0","999","6689","0.00055597","0.00011052","0","3567913","0 SPACEBEE-109","1 48897U 21059U   22253.92536070  .00011052  00000-0  55597-3 0  9992","2 48897  97.5672  23.4241 0009376 162.9536 197.2014 15.17363340 66893","2021-059U","48897","6891.950","94.901","520.277","507.353","0"
"GENERATED VIA SPACETRACK.ORG API","18 SPCS","48897","SPACEBEE-109","PAYLOAD","U","21059U","2022-09-11 07:42:17","300448","15.17373777","0.0009422","97.5674","23.8192","161.7446","198.4127","0","999","6695","0.00059985","0.00011935","0","3568903","0 SPACEBEE-109","1 48897U 21059U   22254.32103357  .00011935  00000-0  59985-3 0  9990","2 48897  97.5674  23.8192 0009422 161.7446 198.4127 15.17373777 66953","2021-059U","48897","6891.918","94.901","520.277","507.290","0"
"GENERATED VIA SPACETRACK.ORG API","18 SPCS","48897","SPACEBEE-109","PAYLOAD","U","21059U","2022-09-11 20:21:58","457664","15.17387792","0.000944","97.5675","24.3463","159.942","200.2186","0","999","6703","0.00062863","0.00012517","0","3569361","0 SPACEBEE-109","1 48897U 21059U   22254.84859326  .00012517  00000-0  62863-3 0  9997","2 48897  97.5675  24.3463 0009440 159.9420 200.2186 15.17387792 67031","2021-059U","48897","6891.876","94.900","520.247","507.235","0"
"GENERATED VIA SPACETRACK.ORG API","18 SPCS","48897","SPACEBEE-109","PAYLOAD","U","21059U","2022-09-12 07:26:41","604000","15.17401018","0.0009482","97.568","24.8077","158.4065","201.757","0","999","6710","0.00066036","0.00013158","0","3569851","0 SPACEBEE-109","1 48897U 21059U   22255.31020375  .00013158  00000-0  66036-3 0  9992","2 48897  97.5680  24.8077 0009482 158.4065 201.7570 15.17401018 67107","2021-059U","48897","6891.836","94.899","520.236","507.166","0"
